start=new Date('2023-05-09T00:00:00.000Z').valueOf();
sats=[{"NORAD_CAT_ID":"53639","MEAN_MOTION":"15.08848750","SITE":"AFETR","ARG_OF_PERICENTER":"65.4944","OBJECT_ID":"2022-104BD","REV_AT_EPOCH":"3964","PERIAPSIS":"539.056","TLE_LINE1":"1 53639U 22104BD  23128.59803596  .00002909  00000-0  20070-3 0  9998","GP_ID":"231475821","PERIOD":"95.437","RCS_SIZE":"LARGE","REF_FRAME":"TEME","APOAPSIS":"540.381","DECAY_DATE":null,"MEAN_MOTION_DDOT":"0.0000000000000","RA_OF_ASC_NODE":"195.1061","OBJECT_NAME":"STARLINK-4422","ECCENTRICITY":"0.00009580","BSTAR":"0.00020070000000","OBJECT_TYPE":"PAYLOAD","EPOCH":"2023-05-08T14:21:10.306944","INCLINATION":"53.2154","CLASSIFICATION_TYPE":"U","COUNTRY_CODE":"US","SEMIMAJOR_AXIS":"6917.854","CENTER_NAME":"EARTH","EPHEMERIS_TYPE":"0","MEAN_MOTION_DOT":"0.00002909","FILE":"3904305","MEAN_ANOMALY":"294.6148","LAUNCH_DATE":"2022-08-28","MEAN_ELEMENT_THEORY":"SGP4","TIME_SYSTEM":"UTC","ELEMENT_SET_NO":"999","TLE_LINE2":"2 53639  53.2154 195.1061 0000958  65.4944 294.6148 15.08848750 39647"},{"MEAN_MOTION":"15.08843420","NORAD_CAT_ID":"53640","ARG_OF_PERICENTER":"90.1677","SITE":"AFETR","OBJECT_ID":"2022-104BE","REV_AT_EPOCH":"3979","TLE_LINE1":"1 53640U 22104BE  23128.46187484 -.00000156  00000-0  83055-5 0  9994","PERIAPSIS":"539.134","GP_ID":"231474573","REF_FRAME":"TEME","RCS_SIZE":"LARGE","PERIOD":"95.437","APOAPSIS":"540.335","DECAY_DATE":null,"MEAN_MOTION_DDOT":"0.0000000000000","RA_OF_ASC_NODE":"195.6777","OBJECT_NAME":"STARLINK-4597","ECCENTRICITY":"0.00008680","BSTAR":"0.00000830550000","OBJECT_TYPE":"PAYLOAD","EPOCH":"2023-05-08T11:05:05.986176","INCLINATION":"53.2166","COUNTRY_CODE":"US","CLASSIFICATION_TYPE":"U","SEMIMAJOR_AXIS":"6917.870","CENTER_NAME":"EARTH","EPHEMERIS_TYPE":"0","MEAN_MOTION_DOT":"-0.00000156","FILE":"3904305","TIME_SYSTEM":"UTC","LAUNCH_DATE":"2022-08-28","ELEMENT_SET_NO":"999","MEAN_ANOMALY":"269.9415","MEAN_ELEMENT_THEORY":"SGP4","TLE_LINE2":"2 53640  53.2166 195.6777 0000868  90.1677 269.9415 15.08843420 39796"},{"ECCENTRICITY":"0.00010520","BSTAR":"0.00001223500000","OBJECT_NAME":"STARLINK-4588","RA_OF_ASC_NODE":"195.0595","MEAN_MOTION_DDOT":"0.0000000000000","APOAPSIS":"540.462","DECAY_DATE":null,"TLE_LINE1":"1 53641U 22104BF  23128.59066798 -.00000093  00000-0  12235-4 0  9994","GP_ID":"231474818","PERIAPSIS":"539.007","PERIOD":"95.437","RCS_SIZE":"LARGE","REF_FRAME":"TEME","OBJECT_ID":"2022-104BF","REV_AT_EPOCH":"3981","NORAD_CAT_ID":"53641","MEAN_MOTION":"15.08843510","ARG_OF_PERICENTER":"88.5677","SITE":"AFETR","TLE_LINE2":"2 53641  53.2162 195.0595 0001052  88.5677 271.5435 15.08843510 39816","LAUNCH_DATE":"2022-08-28","MEAN_ELEMENT_THEORY":"SGP4","TIME_SYSTEM":"UTC","ELEMENT_SET_NO":"999","MEAN_ANOMALY":"271.5435","MEAN_MOTION_DOT":"-0.00000093","FILE":"3904305","CENTER_NAME":"EARTH","EPHEMERIS_TYPE":"0","CLASSIFICATION_TYPE":"U","COUNTRY_CODE":"US","SEMIMAJOR_AXIS":"6917.870","INCLINATION":"53.2162","EPOCH":"2023-05-08T14:10:33.713472","OBJECT_TYPE":"PAYLOAD"},{"RA_OF_ASC_NODE":"10.2974","OBJECT_NAME":"STARLINK-4622","ECCENTRICITY":"0.00051790","BSTAR":"0.00003433400000","MEAN_MOTION_DDOT":"0.0000000000000","PERIAPSIS":"559.422","TLE_LINE1":"1 53648U 22105A   23128.66717210  .00000382  00000-0  34334-4 0  9996","GP_ID":"231475074","PERIOD":"95.920","RCS_SIZE":"LARGE","REF_FRAME":"TEME","APOAPSIS":"566.611","DECAY_DATE":null,"NORAD_CAT_ID":"53648","MEAN_MOTION":"15.01258462","ARG_OF_PERICENTER":"48.6899","SITE":"AFWTR","OBJECT_ID":"2022-105A","REV_AT_EPOCH":"3780","LAUNCH_DATE":"2022-08-31","TIME_SYSTEM":"UTC","MEAN_ELEMENT_THEORY":"SGP4","MEAN_ANOMALY":"311.4771","ELEMENT_SET_NO":"999","TLE_LINE2":"2 53648  97.6556  10.2974 0005179  48.6899 311.4771 15.01258462 37801","MEAN_MOTION_DOT":"0.00000382","FILE":"3904305","CLASSIFICATION_TYPE":"U","COUNTRY_CODE":"US","SEMIMAJOR_AXIS":"6941.152","CENTER_NAME":"EARTH","EPHEMERIS_TYPE":"0","OBJECT_TYPE":"PAYLOAD","INCLINATION":"97.6556","EPOCH":"2023-05-08T16:00:43.669440"},{"DECAY_DATE":null,"APOAPSIS":"566.494","PERIOD":"95.919","RCS_SIZE":"LARGE","REF_FRAME":"TEME","GP_ID":"231475318","TLE_LINE1":"1 53649U 22105B   23128.66531999  .00000741  00000-0  62246-4 0  9997","PERIAPSIS":"559.526","REV_AT_EPOCH":"3779","OBJECT_ID":"2022-105B","ARG_OF_PERICENTER":"54.1420","SITE":"AFWTR","NORAD_CAT_ID":"53649","MEAN_MOTION":"15.01260537","BSTAR":"0.00006224600000","ECCENTRICITY":"0.00050190","RA_OF_ASC_NODE":"10.2939","OBJECT_NAME":"STARLINK-4386","MEAN_MOTION_DDOT":"0.0000000000000","EPHEMERIS_TYPE":"0","CENTER_NAME":"EARTH","SEMIMAJOR_AXIS":"6941.145","CLASSIFICATION_TYPE":"U","COUNTRY_CODE":"US","INCLINATION":"97.6558","EPOCH":"2023-05-08T15:58:03.647136","OBJECT_TYPE":"PAYLOAD","TLE_LINE2":"2 53649  97.6558  10.2939 0005019  54.1420 306.0270 15.01260537 37798","LAUNCH_DATE":"2022-08-31","MEAN_ELEMENT_THEORY":"SGP4","TIME_SYSTEM":"UTC","MEAN_ANOMALY":"306.0270","ELEMENT_SET_NO":"999","FILE":"3904305","MEAN_MOTION_DOT":"0.00000741"},{"FILE":"3904305","MEAN_MOTION_DOT":"0.00000692","TLE_LINE2":"2 53650  97.6558  10.2914 0004105  60.8643 299.2992 15.01264281 37793","TIME_SYSTEM":"UTC","LAUNCH_DATE":"2022-08-31","MEAN_ELEMENT_THEORY":"SGP4","MEAN_ANOMALY":"299.2992","ELEMENT_SET_NO":"999","INCLINATION":"97.6558","EPOCH":"2023-05-08T15:55:23.344032","OBJECT_TYPE":"PAYLOAD","EPHEMERIS_TYPE":"0","CENTER_NAME":"EARTH","SEMIMAJOR_AXIS":"6941.134","CLASSIFICATION_TYPE":"U","COUNTRY_CODE":"US","MEAN_MOTION_DDOT":"0.0000000000000","BSTAR":"0.00005847200000","ECCENTRICITY":"0.00041050","RA_OF_ASC_NODE":"10.2914","OBJECT_NAME":"STARLINK-4380","REV_AT_EPOCH":"3779","OBJECT_ID":"2022-105C","SITE":"AFWTR","ARG_OF_PERICENTER":"60.8643","NORAD_CAT_ID":"53650","MEAN_MOTION":"15.01264281","DECAY_DATE":null,"APOAPSIS":"565.848","PERIOD":"95.919","RCS_SIZE":"LARGE","REF_FRAME":"TEME","TLE_LINE1":"1 53650U 22105C   23128.66346463  .00000692  00000-0  58472-4 0  9990","GP_ID":"231476075","PERIAPSIS":"560.149"},{"ECCENTRICITY":"0.00040660","BSTAR":"0.00002685300000","RA_OF_ASC_NODE":"10.2888","OBJECT_NAME":"STARLINK-4388","MEAN_MOTION_DDOT":"0.0000000000000","APOAPSIS":"565.835","DECAY_DATE":null,"PERIAPSIS":"560.191","TLE_LINE1":"1 53651U 22105D   23128.66161477  .00000286  00000-0  26853-4 0  9998","GP_ID":"231475822","REF_FRAME":"TEME","PERIOD":"95.919","RCS_SIZE":"LARGE","OBJECT_ID":"2022-105D","REV_AT_EPOCH":"3779","MEAN_MOTION":"15.01259700","NORAD_CAT_ID":"53651","ARG_OF_PERICENTER":"59.4878","SITE":"AFWTR","TLE_LINE2":"2 53651  97.6559  10.2888 0004066  59.4878 300.6747 15.01259700 37790","TIME_SYSTEM":"UTC","LAUNCH_DATE":"2022-08-31","MEAN_ANOMALY":"300.6747","ELEMENT_SET_NO":"999","MEAN_ELEMENT_THEORY":"SGP4","MEAN_MOTION_DOT":"0.00000286","FILE":"3904305","CENTER_NAME":"EARTH","EPHEMERIS_TYPE":"0","COUNTRY_CODE":"US","CLASSIFICATION_TYPE":"U","SEMIMAJOR_AXIS":"6941.148","INCLINATION":"97.6559","EPOCH":"2023-05-08T15:52:43.516128","OBJECT_TYPE":"PAYLOAD"},{"ECCENTRICITY":"0.00020810","BSTAR":"0.00007363900000","OBJECT_NAME":"STARLINK-4374","RA_OF_ASC_NODE":"10.2855","MEAN_MOTION_DDOT":"0.0000000000000","APOAPSIS":"564.453","DECAY_DATE":null,"PERIAPSIS":"561.564","TLE_LINE1":"1 53652U 22105E   23128.65975971  .00000887  00000-0  73639-4 0  9991","GP_ID":"231474574","REF_FRAME":"TEME","PERIOD":"95.919","RCS_SIZE":"LARGE","OBJECT_ID":"2022-105E","REV_AT_EPOCH":"3779","MEAN_MOTION":"15.01260958","NORAD_CAT_ID":"53652","SITE":"AFWTR","ARG_OF_PERICENTER":"84.6341","TLE_LINE2":"2 53652  97.6564  10.2855 0002081  84.6341 275.5120 15.01260958 37793","MEAN_ANOMALY":"275.5120","LAUNCH_DATE":"2022-08-31","MEAN_ELEMENT_THEORY":"SGP4","TIME_SYSTEM":"UTC","ELEMENT_SET_NO":"999","MEAN_MOTION_DOT":"0.00000887","FILE":"3904305","CENTER_NAME":"EARTH","EPHEMERIS_TYPE":"0","COUNTRY_CODE":"US","CLASSIFICATION_TYPE":"U","SEMIMAJOR_AXIS":"6941.144","EPOCH":"2023-05-08T15:50:03.238944","INCLINATION":"97.6564","OBJECT_TYPE":"PAYLOAD"},{"LAUNCH_DATE":"2022-08-31","TIME_SYSTEM":"UTC","ELEMENT_SET_NO":"999","MEAN_ANOMALY":"241.4901","MEAN_ELEMENT_THEORY":"SGP4","TLE_LINE2":"2 53653  97.6551  10.5552 0001514 106.3149 241.4901 15.01246382  1307","FILE":"3904305","MEAN_MOTION_DOT":"0.00005732","SEMIMAJOR_AXIS":"6941.189","COUNTRY_CODE":"US","CLASSIFICATION_TYPE":"U","EPHEMERIS_TYPE":"0","CENTER_NAME":"EARTH","OBJECT_TYPE":"PAYLOAD","EPOCH":"2023-05-08T22:00:00.999936","INCLINATION":"97.6551","OBJECT_NAME":"STARLINK-4390","RA_OF_ASC_NODE":"10.5552","BSTAR":"0.00045063000000","ECCENTRICITY":"0.00015140","MEAN_MOTION_DDOT":"0.0000000000000","REF_FRAME":"TEME","RCS_SIZE":"LARGE","PERIOD":"95.920","TLE_LINE1":"1 53653U 22105F   23128.91667824  .00005732  00000-0  45063-3 0  9999","PERIAPSIS":"562.003","GP_ID":"231474819","DECAY_DATE":null,"APOAPSIS":"564.105","ARG_OF_PERICENTER":"106.3149","SITE":"AFWTR","MEAN_MOTION":"15.01246382","NORAD_CAT_ID":"53653","REV_AT_EPOCH":"130","OBJECT_ID":"2022-105F"},{"FILE":"3904305","MEAN_MOTION_DOT":"0.00003065","ELEMENT_SET_NO":"999","LAUNCH_DATE":"2022-08-31","TIME_SYSTEM":"UTC","MEAN_ANOMALY":"266.9699","MEAN_ELEMENT_THEORY":"SGP4","TLE_LINE2":"2 53654  97.6558  10.2805 0002638  93.1827 266.9699 15.01268834 37791","OBJECT_TYPE":"PAYLOAD","INCLINATION":"97.6558","EPOCH":"2023-05-08T15:42:03.404448","SEMIMAJOR_AXIS":"6941.120","COUNTRY_CODE":"US","CLASSIFICATION_TYPE":"U","EPHEMERIS_TYPE":"0","CENTER_NAME":"EARTH","MEAN_MOTION_DDOT":"0.0000000000000","OBJECT_NAME":"STARLINK-4420","RA_OF_ASC_NODE":"10.2805","BSTAR":"0.00024303000000","ECCENTRICITY":"0.00026380","SITE":"AFWTR","ARG_OF_PERICENTER":"93.1827","MEAN_MOTION":"15.01268834","NORAD_CAT_ID":"53654","REV_AT_EPOCH":"3779","OBJECT_ID":"2022-105G","REF_FRAME":"TEME","RCS_SIZE":"LARGE","PERIOD":"95.919","PERIAPSIS":"561.154","TLE_LINE1":"1 53654U 22105G   23128.65420607  .00003065  00000-0  24303-3 0  9998","GP_ID":"231475575","DECAY_DATE":null,"APOAPSIS":"564.816"}];
